{"type": "FeatureCollection", "features": [ {"type": "Feature", "properties": {"norad_id": 47068, "name": "COSMOS 2251 DEB", "group": "cosmos-2251-debris", "lat": 35.62687236969627, "lon": 7.615140709879758, "alt_km": 722.9887115558222, "timestamp": "2025-12-14T20:40:32.171611+00:00", "meta": {"OBJECT_NAME": "COSMOS 2251 DEB", "OBJECT_ID": "1993-036BXY", "EPOCH": "2025-12-13T20:53:19.472064", "MEAN_MOTION": 14.53162773, "ECCENTRICITY": 0.00183454, "INCLINATION": 74.024, "RA_OF_ASC_NODE": 201.3336, "ARG_OF_PERICENTER": 288.2568, "MEAN_ANOMALY": 71.6597, "EPHEMERIS_TYPE": 0, "CLASSIFICATION_TYPE": "U", "NORAD_CAT_ID": 47068, "ELEMENT_SET_NO": 999, "REV_AT_EPOCH": 61773, "BSTAR": 0.0010277009, "MEAN_MOTION_DOT": 4.239e-05, "MEAN_MOTION_DDOT": 0}, "tle": {"line1": "1 47068U 93036BXY 25347.87036426  .00004239  00000+0  10277-2 0  9999", "line2": "2 47068  74.0240 201.3336 0018345 288.2568  71.6597 14.53162773617730"}}, "geometry": {"type": "Point", "coordinates": [7.615140709879758, 35.62687236969627]}}, {"type": "Feature", "properties": {"norad_id": 47073, "name": "COSMOS 2251 DEB", "group": "cosmos-2251-debris", "lat": -57.392904160026795, "lon": 171.6602424886976, "alt_km": 829.3293869743184, "timestamp": "2025-12-14T20:40:32.171621+00:00", "meta": {"OBJECT_NAME": "COSMOS 2251 DEB", "OBJECT_ID": "1993-036BYD", "EPOCH": "2025-12-10T22:57:37.610784", "MEAN_MOTION": 14.04716581, "ECCENTRICITY": 0.0162103, "INCLINATION": 74.0823, "RA_OF_ASC_NODE": 204.9451, "ARG_OF_PERICENTER": 243.6176, "MEAN_ANOMALY": 114.8243, "EPHEMERIS_TYPE": 0, "CLASSIFICATION_TYPE": "U", "NORAD_CAT_ID": 47073, "ELEMENT_SET_NO": 999, "REV_AT_EPOCH": 60336, "BSTAR": 0.00063847, "MEAN_MOTION_DOT": 1.125e-05, "MEAN_MOTION_DDOT": 0}, "tle": {"line1": "1 47073U 93036BYD 25344.95668531  .00001125  00000+0  63847-3 0  9992", "line2": "2 47073  74.0823 204.9451 0162103 243.6176 114.8243 14.04716581603362"}}, "geometry": {"type": "Point", "coordinates": [171.6602424886976, -57.392904160026795]}}, {"type": "Feature", "properties": {"norad_id": 47074, "name": "COSMOS 2251 DEB", "group": "cosmos-2251-debris", "lat": -33.217544457198045, "lon": -65.93202737350656, "alt_km": 676.2095000246936, "timestamp": "2025-12-14T20:40:32.171631+00:00", "meta": {"OBJECT_NAME": "COSMOS 2251 DEB", "OBJECT_ID": "1993-036BYE", "EPOCH": "2025-12-14T04:11:13.221312", "MEAN_MOTION": 14.35642167, "ECCENTRICITY": 0.01443955, "INCLINATION": 74.0928, "RA_OF_ASC_NODE": 306.0867, "ARG_OF_PERICENTER": 333.9611, "MEAN_ANOMALY": 42.2812, "EPHEMERIS_TYPE": 0, "CLASSIFICATION_TYPE": "U", "NORAD_CAT_ID": 47074, "ELEMENT_SET_NO": 999, "REV_AT_EPOCH": 2703, "BSTAR": 0.001977061, "MEAN_MOTION_DOT": 6.399e-05, "MEAN_MOTION_DDOT": 0}, "tle": {"line1": "1 47074U 93036BYE 25348.17445858  .00006399  00000+0  19771-2 0  9990", "line2": "2 47074  74.0928 306.0867 0144395 333.9611  42.2812 14.35642167 27036"}}, "geometry": {"type": "Point", "coordinates": [-65.93202737350656, -33.217544457198045]}}, {"type": "Feature", "properties": {"norad_id": 47116, "name": "COSMOS 2251 DEB", "group": "cosmos-2251-debris", "lat": -64.19890933796295, "lon": -159.92776544877114, "alt_km": 567.2552313974402, "timestamp": "2025-12-14T20:40:32.171642+00:00", "meta": {"OBJECT_NAME": "COSMOS 2251 DEB", "OBJECT_ID": "1993-036BYJ", "EPOCH": "2025-12-11T00:06:23.501088", "MEAN_MOTION": 14.98044349, "ECCENTRICITY": 0.00215318, "INCLINATION": 74.0231, "RA_OF_ASC_NODE": 244.2359, "ARG_OF_PERICENTER": 338.282, "MEAN_ANOMALY": 38.4094, "EPHEMERIS_TYPE": 0, "CLASSIFICATION_TYPE": "U", "NORAD_CAT_ID": 47116, "ELEMENT_SET_NO": 999, "REV_AT_EPOCH": 59485, "BSTAR": 0.0031113289, "MEAN_MOTION_DOT": 0.0003712, "MEAN_MOTION_DDOT": 0}, "tle": {"line1": "1 47116U 93036BYJ 25345.00443867  .00037120  00000+0  31113-2 0  9994", "line2": "2 47116  74.0231 244.2359 0021531 338.2820  38.4094 14.98044349594850"}}, "geometry": {"type": "Point", "coordinates": [-159.92776544877114, -64.19890933796295]}}, {"type": "Feature", "properties": {"norad_id": 53093, "name": "COSMOS 2251 DEB", "group": "cosmos-2251-debris", "lat": 43.0562498730565, "lon": -46.96433715963904, "alt_km": 736.5365469801436, "timestamp": "2025-12-14T20:40:32.171652+00:00", "meta": {"OBJECT_NAME": "COSMOS 2251 DEB", "OBJECT_ID": "1993-036BYP", "EPOCH": "2025-12-14T07:08:45.986208", "MEAN_MOTION": 14.41893105, "ECCENTRICITY": 0.00192755, "INCLINATION": 74.0363, "RA_OF_ASC_NODE": 298.5672, "ARG_OF_PERICENTER": 15.3893, "MEAN_ANOMALY": 344.7845, "EPHEMERIS_TYPE": 0, "CLASSIFICATION_TYPE": "U", "NORAD_CAT_ID": 53093, "ELEMENT_SET_NO": 999, "REV_AT_EPOCH": 17748, "BSTAR": 0.0010655739, "MEAN_MOTION_DOT": 3.471e-05, "MEAN_MOTION_DDOT": 0}, "tle": {"line1": "1 53093U 93036BYP 25348.29775447  .00003471  00000+0  10656-2 0  9992", "line2": "2 53093  74.0363 298.5672 0019275  15.3893 344.7845 14.41893105177485"}}, "geometry": {"type": "Point", "coordinates": [-46.96433715963904, 43.0562498730565]}}]}